{"fetched_at":"2026-04-16T06:04:01Z","count":5425,"tles":[{"name":"BALKAN-1","line1":"1 62611U 25009C   26105.26861551  .00003372  00000+0  14126-3 0  9991","line2":"2 62611  97.3936 185.3277 0006912 182.2607 177.8601 15.24195451 69172","category":"Other"},{"name":"NUSAT-27 (SALLY RIDE)","line1":"1 52172U 22033R   23362.45932142  .00042160  00000+0  83073-3 0  9999","line2":"2 52172  97.2916  82.9197 0007246 154.3519 205.8092 15.47073703 97342","category":"Other"},{"name":"UHETSAT","line1":"1 58466U 23185E   26105.63215189  .00003904  00000+0  13517-3 0  9992","line2":"2 58466  97.3529 173.6892 0013708 167.0184 193.1412 15.30375068131721","category":"Other"},{"name":"JILIN-1 GAOFEN 3F","line1":"1 46458U 20065E   26105.62310149  .00025082  00000+0  36797-3 0  9991","line2":"2 46458  97.2301 154.6630 0013559  30.3212 329.8824 15.55409840309964","category":"Other"},{"name":"SITRO-AIS 45","line1":"1 61788U 24199BF  26105.57345016  .00025026  00000+0  40146-3 0  9992","line2":"2 61788  97.3003 340.1318 0009148 146.5350 213.6483 15.53007954124676","category":"Other"},{"name":"KINEIS-2B","line1":"1 62934U 25028G   26105.38599342  .00000641  00000+0  10694-3 0  9991","line2":"2 62934  97.9726 159.3783 0003386  19.0721 341.0613 14.73226134 63417","category":"Other"},{"name":"LQSAT","line1":"1 40958U 15057A   26105.19044634  .00000128  00000+0  25084-4 0  9992","line2":"2 40958  97.6676 101.6939 0018398 114.3905 245.9229 14.76701344566018","category":"Other"},{"name":"ORBCOMM FM110","line1":"1 41182U 15081D   26105.23187742  .00000238  00000+0  86660-4 0  9991","line2":"2 41182  47.0024 299.0934 0002812 152.0263 208.0774 14.58806327548439","category":"Other"},{"name":"UFO 11 (USA 174)","line1":"1 28117U 03057A   26104.83239006 -.00000094  00000+0  00000+0 0  9990","line2":"2 28117   8.9149  34.1362 0002965 333.5648 210.3853  1.00272141 81813","category":"Military"},{"name":"RESOURCESAT-2A","line1":"1 41877U 16074A   26105.64156297  .00000011  00000+0  25235-4 0  9991","line2":"2 41877  98.7551 179.6501 0001031 249.8307 110.2759 14.21614636485412","category":"Other"},{"name":"MONITOR-2 (RS39S)","line1":"1 57184U 23091U   26105.58387040  .00002608  00000+0  13023-3 0  9996","line2":"2 57184  97.5133 164.2806 0010420 338.2969  21.7822 15.18341801154452","category":"Other"},{"name":"HAWK-11C","line1":"1 62381U 24247E   26105.15982755  .00003526  00000+0  13135-3 0  9996","line2":"2 62381  45.0035 274.3413 0005570 215.4134 144.6380 15.29491466 73351","category":"Other"},{"name":"GLOBAL-32","line1":"1 64231U 25118B   26105.49033513  .00008098  00000+0  21713-3 0  9996","line2":"2 64231  58.9956  25.8667 0008483 351.1066   8.9858 15.38847812 48590","category":"Other"},{"name":"JILIN-1 06","line1":"1 43024U 17074C   26105.57422177  .00003761  00000+0  12048-3 0  9995","line2":"2 43024  97.4736 208.0260 0008490 101.7050 258.5145 15.32987859464241","category":"Other"},{"name":"HAIYANG-2D","line1":"1 48621U 21043A   26105.61290675  .00000038  00000+0  10866-3 0  9995","line2":"2 48621  65.9963 100.4887 0011334 275.8653  84.1123 13.83374473247899","category":"Other"},{"name":"OCEANSAT-2","line1":"1 35931U 09051A   26105.57764322 -.00000211  00000+0 -11836-3 0  9993","line2":"2 35931  98.2311  98.6912 0016783  53.5157 306.7553 13.99653506870576","category":"Other"},{"name":"2022-023F","line1":"1 51951U 22023F   26105.62478510  .00004336  00000+0  18388-3 0  9993","line2":"2 51951  63.4493 126.1407 0125721 344.5185  15.2095 15.17822155228215","category":"Other"},{"name":"DTUSAT-2","line1":"1 40030U 14033W   26104.94680633  .00004223  00000+0  23529-3 0  9994","line2":"2 40030  98.0865  98.7057 0009871  91.7149 268.5212 15.14175908643119","category":"Other"},{"name":"2025-012B","line1":"1 62726U 25012B   26105.63181943  .00002742  00000+0  12797-3 0  9995","line2":"2 62726  97.4261 179.6007 0010409 130.1418 230.0731 15.20637615 68743","category":"Other"},{"name":"NOVASAR 1","line1":"1 43619U 18071B   26105.65793434  .00000576  00000+0  55950-4 0  9990","line2":"2 43619  97.5155 340.5139 0001304  89.2613 270.8758 14.96177132413588","category":"Other"},{"name":"CONNECTA T1.2","line1":"1 55012U 23001D   26105.16678438  .00009034  00000+0  18068-3 0  9997","line2":"2 55012  97.3327 174.9288 0004939 332.2233  27.8752 15.47002483182790","category":"Other"},{"name":"CORVUS BC4","line1":"1 43767U 18099K   26105.39346649  .00002348  00000+0  14040-3 0  9990","line2":"2 43767  97.4137 150.2148 0007640 207.4995 152.5832 15.11988923402913","category":"Other"},{"name":"HYPERVIEW 1G (RS66S)","line1":"1 61772U 24199AP  26105.62176818  .00047958  00000+0  51500-3 0  9997","line2":"2 61772  97.3008 342.7920 0009279 135.7957 224.4045 15.63594597124869","category":"Other"},{"name":"ONEWEB-0007","line1":"1 44060U 19010D   26105.43963928  .00000200  00000+0  49842-3 0  9994","line2":"2 44060  87.8939 271.7411 0002069  94.7118 265.4248 13.15548348343126","category":"Other"},{"name":"CUTE","line1":"1 49263U 21088D   26105.52720395  .00058956  00000+0  43341-3 0  9990","line2":"2 49263  97.4198 199.9456 0003052 194.3126 165.8051 15.72922094252650","category":"Other"},{"name":"TORO","line1":"1 60530U 24149BQ  26105.44612403  .00000619  00000+0  59965-4 0  9995","line2":"2 60530  97.6808 181.2900 0001502 100.5558 259.5832 14.96195776 90577","category":"Other"},{"name":"TOMORROW-R2","line1":"1 56962U 23084AG  26105.39578582  .00076693  00000+0  40226-3 0  9993","line2":"2 56962  97.5915 262.1399 0003470 149.1341 211.0131 15.80554246159076","category":"Other"},{"name":"SHUNTIAN","line1":"1 44886U 19093H   26105.56037731  .00000576  00000+0  58174-4 0  9994","line2":"2 44886  97.7994 194.0620 0010433 275.0215  84.9814 14.94844497342829","category":"Other"},{"name":"MOZHAETS 4 (RS22)","line1":"1 27939U 03042A   26105.60410414  .00000208  00000+0  40417-4 0  9992","line2":"2 27939  98.3463 288.1999 0012499 105.6136 344.1161 14.73352496206336","category":"Other"},{"name":"PHASE 3B (AO-10)","line1":"1 14129U 83058B   26102.81319713 -.00000295  00000+0  00000+0 0  9990","line2":"2 14129  25.8997 230.4827 6034279  97.6141 330.5213  2.05874162294146","category":"Other"},{"name":"CENTISPACE-1 S10","line1":"1 62579U 25007E   26105.57053800 -.00000050  00000+0  85467-4 0  9994","line2":"2 62579  54.9873 150.4011 0010114 339.4849  20.5700 13.80593221 66084","category":"Other"},{"name":"LKW-3","line1":"1 43146U 18006A   26105.58773105  .00006279  00000+0  19328-3 0  9992","line2":"2 43146  97.6535 263.8016 0003584 149.9248 210.2200 15.34025643459118","category":"Other"},{"name":"SHIJIAN-30A (SJ-30A)","line1":"1 66545U 25266A   26105.72355007  .00002542  00000+0  14881-3 0  9997","line2":"2 66545  51.7966 111.9963 0011126  52.5237 307.6750 15.15452609 22388","category":"Other"},{"name":"HODOYOSHI-4","line1":"1 40011U 14033B   26105.63205127  .00000701  00000+0  81733-4 0  9990","line2":"2 40011  97.5462 293.4789 0024376 149.6494 210.6141 14.87975782639508","category":"Other"},{"name":"DONGPO 02","line1":"1 53452U 22098J   26105.61897194  .00040210  00000+0  41509-3 0  9997","line2":"2 53452  97.5428 231.9644 0003836 191.5462 168.5710 15.64682251204984","category":"Other"},{"name":"BRITE-PL2 (HEWELIUSZ)","line1":"1 40119U 14049B   26105.30197536  .00000926  00000+0  91510-4 0  9997","line2":"2 40119  97.9019 216.8550 0013101 322.4937  37.5368 14.94359449632055","category":"Other"},{"name":"ICEYE-X44","line1":"1 62707U 25009DC  26105.60616961  .00001229  00000+0  11568-3 0  9994","line2":"2 62707  97.7066 185.7380 0001163  37.1559 322.9742 14.95650342 90582","category":"Other"},{"name":"IOD-2","line1":"1 64538U 25135L   26105.58154048  .00002364  00000+0  11331-3 0  9997","line2":"2 64538  97.4619 220.8197 0005591  50.0137 310.1588 15.19881818 45318","category":"Other"},{"name":"SAUDISAT 5A","line1":"1 43831U 18102A   26105.61288736  .00002933  00000+0  11191-3 0  9998","line2":"2 43831  97.3122 168.4125 0009588   6.2558 353.8800 15.27415148406126","category":"Other"},{"name":"HORS 4 (RS82S)","line1":"1 61754U 24199V   26105.57512070  .00025240  00000+0  38547-3 0  9991","line2":"2 61754  97.3036 341.1977 0008061 136.0947 224.0949 15.54378312127908","category":"Other"},{"name":"COSMOS 2581","line1":"1 62902U 25026A   26105.70502262  .00000661  00000+0  58465-4 0  9996","line2":"2 62902  81.9944 138.2466 0008561 261.2665  98.7585 14.94844265 64889","category":"Other"},{"name":"2023-072G","line1":"1 56749U 23072G   26105.58708079  .00016722  00000+0  33050-3 0  9994","line2":"2 56749  97.4976 311.0948 0004069 190.3961 169.7205 15.47197236160775","category":"Other"},{"name":"GONETS-M 11","line1":"1 40552U 15020A   26105.62261300  .00000125  00000+0  83297-3 0  9997","line2":"2 40552  82.4831  69.9699 0016759 134.8102 225.4344 12.42874904500964","category":"Other"},{"name":"2024-092B","line1":"1 59774U 24092B   26105.63456273  .00005335  00000+0  20057-3 0  9991","line2":"2 59774  97.6393 233.1292 0009572  49.0323 311.1742 15.27568097105989","category":"Other"},{"name":"GREGOIRE","line1":"1 56946U 23084Q   26105.34709779  .00004706  00000+0  13407-3 0  9991","line2":"2 56946  97.6143 246.8767 0007453 172.7866 187.3486 15.36593468158054","category":"Other"},{"name":"HAIYANG 4-01","line1":"1 61936U 24208A   26105.64197334  .00000251  00000+0  46445-4 0  9996","line2":"2 61936  98.0057 114.2504 0002162  57.5930 302.5487 14.73316328 76238","category":"Other"},{"name":"BNU-1 (JINGSHI 1)","line1":"1 44529U 19059B   26105.63193138  .00000227  00000+0  72884-4 0  9999","line2":"2 44529  98.5954 233.5886 0012879 197.7214 162.3531 14.48337365347930","category":"Other"},{"name":"ATS 5","line1":"1 04068U 69069A   26105.14878644 -.00000257  00000+0  00000+0 0  9997","line2":"2 04068   0.2382 191.7857 0005745  91.2517 292.2723  0.99494335 45708","category":"Other"},{"name":"GONETS-M 12","line1":"1 40553U 15020B   26105.59683906 -.00000028  00000+0 -27205-3 0  9995","line2":"2 40553  82.4863  71.0936 0016022 119.9996 240.2677 12.42889350500950","category":"Other"}]}